[{"OBJECT_NAME":"STARLINK-5629","OBJECT_ID":"2023-014AE","EPOCH":"2026-03-09T11:43:08.837472","MEAN_MOTION":14.98325746,"ECCENTRICITY":0.00029243,"INCLINATION":69.9995,"RA_OF_ASC_NODE":84.903,"ARG_OF_PERICENTER":265.6954,"MEAN_ANOMALY":94.3871,"EPHEMERIS_TYPE":0,"CLASSIFICATION_TYPE":"U","NORAD_CAT_ID":55419,"ELEMENT_SET_NO":999,"REV_AT_EPOCH":17153,"BSTAR":-1.3595516e-5,"MEAN_MOTION_DOT":-2.55e-6,"MEAN_MOTION_DDOT":0},{"OBJECT_NAME":"CZ-6A R\/B","OBJECT_ID":"2024-126D","EPOCH":"2026-03-09T19:23:06.789408","MEAN_MOTION":15.13279149,"ECCENTRICITY":0.00704729,"INCLINATION":97.7886,"RA_OF_ASC_NODE":97.6113,"ARG_OF_PERICENTER":100.2752,"MEAN_ANOMALY":260.6434,"EPHEMERIS_TYPE":0,"CLASSIFICATION_TYPE":"U","NORAD_CAT_ID":60214,"ELEMENT_SET_NO":999,"REV_AT_EPOCH":9240,"BSTAR":0.00030839807,"MEAN_MOTION_DOT":5.76e-5,"MEAN_MOTION_DDOT":0}]
